<?xml version='1.0' encoding='UTF-8'?>
<opm xmlns:xsi="http://www.w3.org/2001/XMLSchema-instance" xsi:noNamespaceSchemaLocation="http://sanaregistry.org/r/ndmxml/ndmxml-1.0-master.xsd" id="CCSDS_OPM_VERS" version="2.0">
  <header>
    <CREATION_DATE>2019-11-21T21:41:41</CREATION_DATE>
    <ORIGINATOR>N/A</ORIGINATOR>
  </header>
  <body>
    <segment>
      <metadata>
        <OBJECT_NAME>ISS (ZARYA)</OBJECT_NAME>
        <OBJECT_ID>1998-067A</OBJECT_ID>
        <CENTER_NAME>EARTH</CENTER_NAME>
        <REF_FRAME>TEME</REF_FRAME>
        <TIME_SYSTEM>UTC</TIME_SYSTEM>
      </metadata>
      <data>
        <stateVector>
          <EPOCH>2008-09-20T12:25:40.104192</EPOCH>
          <X units="km">4086.147180</X>
          <Y units="km">-994.936814</Y>
          <Z units="km">5250.678791</Z>
          <X_DOT units="km/s">2.511071</X_DOT>
          <Y_DOT units="km/s">7.255240</Y_DOT>
          <Z_DOT units="km/s">-0.583165</Z_DOT>
        </stateVector>
        <keplerianElements>
          <SEMI_MAJOR_AXIS units="km">6730.96</SEMI_MAJOR_AXIS>
          <ECCENTRICITY>0.0006703</ECCENTRICITY>
          <INCLINATION units="deg">51.6416</INCLINATION>
          <RA_OF_ASC_NODE units="deg">247.463</RA_OF_ASC_NODE>
          <ARG_OF_PERICENTER units="deg">130.536</ARG_OF_PERICENTER>
          <TRUE_ANOMALY units="deg">324.985</TRUE_ANOMALY>
          <GM units="km**3/s**2">398600.9368</GM>
        </keplerianElements>
        <covarianceMatrix>
          <CX_X>3.3313494760385342e-04</CX_X>
          <CY_X>4.6189273492202161e-04</CY_X>
          <CY_Y>6.7824216799713629e-04</CY_Y>
          <CZ_X>-3.0700078477304492e-04</CZ_X>
          <CZ_Y>-4.2212341895142281e-04</CZ_Y>
          <CZ_Z>3.2319319923803692e-04</CZ_Z>
          <CX_DOT_X>-3.3493650339226300e-07</CX_DOT_X>
          <CX_DOT_Y>-4.6860842210467581e-07</CX_DOT_Y>
          <CX_DOT_Z>2.4849495784000951e-07</CX_DOT_Z>
          <CX_DOT_X_DOT>4.2960228055872899e-10</CX_DOT_X_DOT>
          <CY_DOT_X>-2.2118325010848749e-07</CY_DOT_X>
          <CY_DOT_Y>-2.8641868921027328e-07</CY_DOT_Y>
          <CY_DOT_Z>1.7980986998460380e-07</CY_DOT_Z>
          <CY_DOT_X_DOT>2.6088992016860161e-10</CY_DOT_X_DOT>
          <CY_DOT_Y_DOT>1.7675147563385319e-10</CY_DOT_Y_DOT>
          <CZ_DOT_X>-3.0413460506868711e-07</CZ_DOT_X>
          <CZ_DOT_Y>-4.9894969886106624e-07</CZ_DOT_Y>
          <CZ_DOT_Z>3.5403109044976887e-07</CZ_DOT_Z>
          <CZ_DOT_X_DOT>1.8692631929545898e-10</CZ_DOT_X_DOT>
          <CZ_DOT_Y_DOT>1.0088625862406950e-10</CZ_DOT_Y_DOT>
          <CZ_DOT_Z_DOT>6.2244443386354998e-10</CZ_DOT_Z_DOT>
        </covarianceMatrix>
      </data>
    </segment>
  </body>
</opm>
